[{"OBJECT_NAME":"STARLINK-3668","OBJECT_ID":"2022-025AY","EPOCH":"2026-03-09T07:07:41.768544","MEAN_MOTION":15.08855734,"ECCENTRICITY":0.00013099,"INCLINATION":53.2184,"RA_OF_ASC_NODE":20.9198,"ARG_OF_PERICENTER":88.4315,"MEAN_ANOMALY":271.6827,"EPHEMERIS_TYPE":0,"CLASSIFICATION_TYPE":"U","NORAD_CAT_ID":52002,"ELEMENT_SET_NO":999,"REV_AT_EPOCH":22086,"BSTAR":0.0002908835,"MEAN_MOTION_DOT":4.346e-5,"MEAN_MOTION_DDOT":0},{"OBJECT_NAME":"UPPER FREE FLYER","OBJECT_ID":"2018-099F","EPOCH":"2026-03-09T16:53:56.769792","MEAN_MOTION":15.10728091,"ECCENTRICITY":0.00115819,"INCLINATION":97.4495,"RA_OF_ASC_NODE":120.4613,"ARG_OF_PERICENTER":289.4209,"MEAN_ANOMALY":70.5769,"EPHEMERIS_TYPE":0,"CLASSIFICATION_TYPE":"U","NORAD_CAT_ID":43763,"ELEMENT_SET_NO":999,"REV_AT_EPOCH":39752,"BSTAR":0.00029221901,"MEAN_MOTION_DOT":4.788e-5,"MEAN_MOTION_DDOT":0}]
